NORAD_CAT_ID,OBJECT_NAME,OBJECT_TYPE,EPOCH,MEAN_MOTION,ECCENTRICITY,INCLINATION,RA_OF_ASC_NODE,ARG_OF_PERICENTER,MEAN_ANOMALY,BSTAR,MEAN_MOTION_DOT,MEAN_MOTION_DDOT,TLE_LINE0,TLE_LINE1,TLE_LINE2,SEMIMAJOR_AXIS,PERIOD,APOGEE,PERIGEE,DECAYED
52873.0,STARLINK-4211,PAYLOAD,2023-12-25 09:48:43,15.08844866,0.0001712,53.2187,29.1689,85.068,275.0508,0.00014815,2.071e-05,0.0,0 STARLINK-4211,1 52873U 22062AV  23359.40883451  .00002071  00000-0  14815-3 0  9994,2 52873  53.2187  29.1689 0001712  85.0680 275.0508 15.08844866 84498,6917.866,95.437,540.915,538.546,0.0
52873.0,STARLINK-4211,PAYLOAD,2023-12-26 01:42:35,15.0884039,0.0001509,53.2186,26.1926,101.4722,258.6439,-3.9946e-05,-9.24e-06,0.0,0 STARLINK-4211,1 52873U 22062AV  23360.07124230 -.00000924  00000-0 -39946-4 0  9992,2 52873  53.2186  26.1926 0001509 101.4722 258.6439 15.08840390 85086,6917.879,95.438,540.788,538.7,0.0
52873.0,STARLINK-4211,PAYLOAD,2023-12-26 09:39:30,15.08842952,0.0001547,53.2186,24.7066,92.6932,267.4238,-1.5267e-05,-5.31e-06,0.0,0 STARLINK-4211,1 52873U 22062AV  23360.40244074 -.00000531  00000-0 -15267-4 0  9992,2 52873  53.2186  24.7066 0001547  92.6932 267.4238 15.08842952 84643,6917.871,95.437,540.807,538.666,0.0
52873.0,STARLINK-4211,PAYLOAD,2023-12-27 11:05:40,15.08852849,0.0001621,53.2175,19.948,103.3865,256.7308,0.00024945,3.686e-05,0.0,0 STARLINK-4211,1 52873U 22062AV  23361.46227348  .00003686  00000-0  24945-3 0  9998,2 52873  53.2175  19.9480 0001621 103.3865 256.7308 15.08852849 85292,6917.841,95.437,540.827,538.585,0.0
52873.0,STARLINK-4211,PAYLOAD,2023-12-27 22:13:23,15.08838614,0.0001613,53.2177,17.8683,83.319,276.7986,0.00011573,1.554e-05,0.0,0 STARLINK-4211,1 52873U 22062AV  23361.92596235  .00001554  00000-0  11573-3 0  9998,2 52873  53.2177  17.8683 0001613  83.3190 276.7986 15.08838614 84876,6917.885,95.438,540.865,538.634,0.0
52873.0,STARLINK-4211,PAYLOAD,2023-12-28 04:34:55,15.08839503,0.0001616,53.2179,16.6793,82.4391,277.6784,0.00011793,1.589e-05,0.0,0 STARLINK-4211,1 52873U 22062AV  23362.19092264  .00001589  00000-0  11793-3 0  9993,2 52873  53.2179  16.6793 0001616  82.4391 277.6784 15.08839503 85407,6917.882,95.438,540.865,538.629,0.0
52873.0,STARLINK-4211,PAYLOAD,2023-12-28 07:45:41,15.08842042,0.0001704,53.2174,16.084,88.3385,271.7802,0.00015604,2.196e-05,0.0,0 STARLINK-4211,1 52873U 22062AV  23362.32340164  .00002196  00000-0  15604-3 0  9993,2 52873  53.2174  16.0840 0001704  88.3385 271.7802 15.08842042 84930,6917.874,95.437,540.918,538.56,0.0
52873.0,STARLINK-4211,PAYLOAD,2023-12-29 07:36:29,15.0883897,0.0001753,53.2178,11.6233,97.0966,263.0225,4.732e-06,-2.13e-06,0.0,0 STARLINK-4211,1 52873U 22062AV  23363.31700338 -.00000213  00000-0  47320-5 0  9997,2 52873  53.2178  11.6233 0001753  97.0966 263.0225 15.08838970 85576,6917.884,95.438,540.961,538.536,0.0
52873.0,STARLINK-4211,PAYLOAD,2023-12-30 07:27:16,15.08842206,0.0001775,53.2184,7.1631,102.0523,258.0668,0.00015032,2.105e-05,0.0,0 STARLINK-4211,1 52873U 22062AV  23364.31060249  .00002105  00000-0  15032-3 0  9992,2 52873  53.2184   7.1631 0001775 102.0523 258.0668 15.08842206 85230,6917.874,95.437,540.967,538.511,0.0
52873.0,STARLINK-4211,PAYLOAD,2023-12-31 04:07:17,15.08836824,0.000173,53.2185,3.2943,100.9163,259.2023,4.1403e-05,3.71e-06,0.0,0 STARLINK-4211,1 52873U 22062AV  23365.17172608  .00000371  00000-0  41403-4 0  9995,2 52873  53.2185   3.2943 0001730 100.9163 259.2023 15.08836824 85857,6917.89,95.438,540.952,538.558,0.0
52873.0,STARLINK-4211,PAYLOAD,2023-12-31 05:42:40,15.08835018,0.0001748,53.2194,2.9992,102.7917,257.327,8.4927e-05,1.064e-05,0.0,0 STARLINK-4211,1 52873U 22062AV  23365.23797026  .00001064  00000-0  84927-4 0  9997,2 52873  53.2194   2.9992 0001748 102.7917 257.3270 15.08835018 85377,6917.896,95.438,540.97,538.551,0.0
52873.0,STARLINK-4211,PAYLOAD,2024-01-01 08:44:13,15.08849891,0.0001942,53.219,357.9412,104.7825,255.3383,7.5018e-05,9.06e-06,0.0,0 STARLINK-4211,1 52873U 22062AV  24001.36404228  .00000906  00000-0  75018-4 0  9993,2 52873  53.2190 357.9412 0001942 104.7825 255.3383 15.08849891 86030,6917.85,95.437,541.059,538.372,0.0
52873.0,STARLINK-4211,PAYLOAD,2024-01-02 03:48:51,15.08836816,0.0001799,53.2193,354.3696,89.6951,270.4247,7.7433e-05,9.44e-06,0.0,0 STARLINK-4211,1 52873U 22062AV  24002.15893193  .00000944  00000-0  77433-4 0  9999,2 52873  53.2193 354.3696 0001799  89.6951 270.4247 15.08836816 86152,6917.89,95.438,541.0,538.511,0.0
52873.0,STARLINK-4211,PAYLOAD,2024-01-02 08:35:01,15.0883554,0.0001703,53.2183,353.4869,80.0755,280.0429,7.1527e-05,8.5e-06,0.0,0 STARLINK-4211,1 52873U 22062AV  24002.35765455  .00000850  00000-0  71527-4 0  9994,2 52873  53.2183 353.4869 0001703  80.0755 280.0429 15.08835540 85695,6917.894,95.438,540.937,538.581,0.0
52873.0,STARLINK-4211,PAYLOAD,2024-01-03 08:25:47,15.08852271,0.0001606,53.2185,349.0234,91.4866,268.631,9.8656e-05,1.283e-05,0.0,0 STARLINK-4211,1 52873U 22062AV  24003.35124256  .00001283  00000-0  98656-4 0  9996,2 52873  53.2185 349.0234 0001606  91.4866 268.6310 15.08852271 86338,6917.843,95.437,540.819,538.597,0.0
52873.0,STARLINK-4211,PAYLOAD,2024-01-04 03:30:25,15.08842962,0.0001901,53.2204,345.4485,120.825,239.2929,5.8894e-05,6.49e-06,0.0,0 STARLINK-4211,1 52873U 22062AV  24004.14612818  .00000649  00000-0  58894-4 0  9995,2 52873  53.2204 345.4485 0001901 120.8250 239.2929 15.08842962 86459,6917.871,95.437,541.051,538.421,0.0
52873.0,STARLINK-4211,PAYLOAD,2024-01-04 05:05:48,15.08846115,0.0001907,53.2204,345.151,126.058,234.0589,4.8396e-05,4.82e-06,0.0,0 STARLINK-4211,1 52873U 22062AV  24004.21236623  .00000482  00000-0  48396-4 0  9990,2 52873  53.2204 345.1510 0001907 126.0580 234.0589 15.08846115 85970,6917.862,95.437,541.046,538.407,0.0
52873.0,STARLINK-4211,PAYLOAD,2024-01-05 04:56:35,15.08851395,0.0001626,53.2196,340.6954,100.3127,259.8048,1.4681e-05,-5.4e-07,0.0,0 STARLINK-4211,1 52873U 22062AV  24005.20596476 -.00000054  00000-0  14681-4 0  9991,2 52873  53.2196 340.6954 0001626 100.3127 259.8048 15.08851395 86615,6917.846,95.437,540.835,538.586,0.0
52873.0,STARLINK-4211,PAYLOAD,2024-01-05 08:07:21,15.0885153,0.0001647,53.2194,340.1004,109.5998,250.5172,5.3291e-05,5.6e-06,0.0,0 STARLINK-4211,1 52873U 22062AV  24005.33844269  .00000560  00000-0  53291-4 0  9992,2 52873  53.2194 340.1004 0001647 109.5998 250.5172 15.08851530 86149,6917.845,95.437,540.85,538.571,0.0
52873.0,STARLINK-4211,PAYLOAD,2024-01-06 04:47:22,15.08841896,0.0001611,53.2194,336.2319,90.5146,269.6031,3.0405e-05,1.96e-06,0.0,0 STARLINK-4211,1 52873U 22062AV  24006.19957015  .00000196  00000-0  30405-4 0  9998,2 52873  53.2194 336.2319 0001611  90.5146 269.6031 15.08841896 86766,6917.875,95.437,540.854,538.625,0.0
52873.0,STARLINK-4211,PAYLOAD,2024-01-06 07:58:09,15.08841456,0.0001593,53.2196,335.6386,99.8862,260.231,-9.9322e-06,-4.46e-06,0.0,0 STARLINK-4211,1 52873U 22062AV  24006.33205067 -.00000446  00000-0 -99322-5 0  9991,2 52873  53.2196 335.6386 0001593  99.8862 260.2310 15.08841456 86298,6917.876,95.437,540.843,538.639,0.0
52873.0,STARLINK-4211,PAYLOAD,2024-01-06 22:16:37,15.08827684,0.0001682,53.2193,332.9626,105.0603,255.0575,0.00016884,2.399e-05,0.0,0 STARLINK-4211,1 52873U 22062AV  24006.92821365  .00002399  00000-0  16884-3 0  9998,2 52873  53.2193 332.9626 0001682 105.0603 255.0575 15.08827684 86386,6917.918,95.438,540.947,538.619,0.0
52873.0,STARLINK-4211,PAYLOAD,2024-01-07 03:02:46,15.08847037,0.0001503,53.2183,332.0712,96.5354,263.5809,2.1077e-05,4.8e-07,0.0,0 STARLINK-4211,1 52873U 22062AV  24007.12692768  .00000048  00000-0  21077-4 0  9994,2 52873  53.2183 332.0712 0001503  96.5354 263.5809 15.08847037 86413,6917.859,95.437,540.764,538.684,0.0
52873.0,STARLINK-4211,PAYLOAD,2024-01-07 20:32:01,15.08835762,0.0001685,53.2177,328.8019,108.5422,251.5754,7.8308e-05,9.58e-06,0.0,0 STARLINK-4211,1 52873U 22062AV  24007.85557410  .00000958  00000-0  78308-4 0  9997,2 52873  53.2177 328.8019 0001685 108.5422 251.5754 15.08835762 86520,6917.893,95.438,540.924,538.593,0.0
52873.0,STARLINK-4211,PAYLOAD,2024-01-08 02:53:34,15.08841082,0.0001476,53.2178,327.6105,92.2783,267.8379,4.9523e-05,5e-06,0.0,0 STARLINK-4211,1 52873U 22062AV  24008.12053308  .00000500  00000-0  49523-4 0  9995,2 52873  53.2178 327.6105 0001476  92.2783 267.8379 15.08841082 87055,6917.877,95.437,540.763,538.721,0.0
52873.0,STARLINK-4211,PAYLOAD,2024-01-08 06:04:20,15.08840013,0.0001506,53.218,327.0166,93.3851,266.7313,7.1971e-05,8.58e-06,0.0,0 STARLINK-4211,1 52873U 22062AV  24008.25301331  .00000858  00000-0  71971-4 0  9999,2 52873  53.2180 327.0166 0001506  93.3851 266.7313 15.08840013 86587,6917.88,95.438,540.787,538.704,0.0
52873.0,STARLINK-4211,PAYLOAD,2024-01-09 04:19:44,15.08842554,0.0001537,53.2185,322.8533,82.206,277.9107,8.8499e-05,1.121e-05,0.0,0 STARLINK-4211,1 52873U 22062AV  24009.18037394  .00001121  00000-0  88499-4 0  9994,2 52873  53.2185 322.8533 0001537  82.2060 277.9107 15.08842554 87214,6917.873,95.437,540.801,538.674,0.0
52873.0,STARLINK-4211,PAYLOAD,2024-01-09 05:55:07,15.08845122,0.0001507,53.2184,322.5561,86.971,273.1454,7.6829e-05,9.35e-06,0.0,0 STARLINK-4211,1 52873U 22062AV  24009.24661223  .00000935  00000-0  76829-4 0  9991,2 52873  53.2184 322.5561 0001507  86.9710 273.1454 15.08845122 86734,6917.865,95.437,540.772,538.687,0.0
52873.0,STARLINK-4211,PAYLOAD,2024-01-09 20:13:36,15.08830543,0.0001656,53.219,319.8835,71.4948,288.6224,0.00018544,2.664e-05,0.0,0 STARLINK-4211,1 52873U 22062AV  24009.84277994  .00002664  00000-0  18544-3 0  9995,2 52873  53.2190 319.8835 0001656  71.4948 288.6224 15.08830543 87313,6917.909,95.438,540.92,538.629,0.0
52873.0,STARLINK-4211,PAYLOAD,2024-01-10 04:10:31,15.08838333,0.0001491,53.2193,318.3971,77.0719,283.044,0.00013924,1.929e-05,0.0,0 STARLINK-4211,1 52873U 22062AV  24010.17397735  .00001929  00000-0  13924-3 0  9999,2 52873  53.2193 318.3971 0001491  77.0719 283.0440 15.08838333 86870,6917.885,95.438,540.782,538.719,0.0
